{"type": "FeatureCollection", "features": [{"type": "Feature", "properties": {"norad_id": 22675, "name": "COSMOS 2251", "group": "cosmos-2251-debris", "lat": 12.618320986992252, "lon": 137.75384191079564, "alt_km": 790.9268464666657, "timestamp": "2025-12-09T16:56:36.966551+00:00", "meta": {"OBJECT_NAME": "COSMOS 2251", "OBJECT_ID": "1993-036A", "EPOCH": "2025-12-09T09:28:08.956704", "MEAN_MOTION": 14.33203312, "ECCENTRICITY": 0.0023872, "INCLINATION": 74.0393, "RA_OF_ASC_NODE": 321.9959, "ARG_OF_PERICENTER": 45.29, "MEAN_ANOMALY": 315.019, "EPHEMERIS_TYPE": 0, "CLASSIFICATION_TYPE": "U", "NORAD_CAT_ID": 22675, "ELEMENT_SET_NO": 999, "REV_AT_EPOCH": 69725, "BSTAR": 9.9688e-05, "MEAN_MOTION_DOT": 2.49e-06, "MEAN_MOTION_DDOT": 0}, "tle": {"line1": "1 22675U 93036A   25343.39454811  .00000249  00000+0  99688-4 0  9993", "line2": "2 22675  74.0393 321.9959 0023872  45.2900 315.0190 14.33203312697250"}}, "geometry": {"type": "Point", "coordinates": [137.75384191079564, 12.618320986992252]}}, {"type": "Feature", "properties": {"norad_id": 33757, "name": "COSMOS 2251 DEB", "group": "cosmos-2251-debris", "lat": -30.736904618602207, "lon": 158.94843710798108, "alt_km": 795.8417946627751, "timestamp": "2025-12-09T16:56:36.966578+00:00", "meta": {"OBJECT_NAME": "COSMOS 2251 DEB", "OBJECT_ID": "1993-036E", "EPOCH": "2025-12-09T09:46:17.048064", "MEAN_MOTION": 14.32579717, "ECCENTRICITY": 0.0015129, "INCLINATION": 74.0366, "RA_OF_ASC_NODE": 329.694, "ARG_OF_PERICENTER": 343.5753, "MEAN_ANOMALY": 127.9739, "EPHEMERIS_TYPE": 0, "CLASSIFICATION_TYPE": "U", "NORAD_CAT_ID": 33757, "ELEMENT_SET_NO": 999, "REV_AT_EPOCH": 87948, "BSTAR": 8.1751e-05, "MEAN_MOTION_DOT": 1.96e-06, "MEAN_MOTION_DDOT": 0}, "tle": {"line1": "1 33757U 93036E   25343.40714176  .00000196  00000+0  81751-4 0  9994", "line2": "2 33757  74.0366 329.6940 0015129 343.5753 127.9739 14.32579717879484"}}, "geometry": {"type": "Point", "coordinates": [158.94843710798108, -30.736904618602207]}}, {"type": "Feature", "properties": {"norad_id": 33758, "name": "COSMOS 2251 DEB", "group": "cosmos-2251-debris", "lat": -47.19000617748125, "lon": -157.26628423854757, "alt_km": 715.5280109979649, "timestamp": "2025-12-09T16:56:36.966594+00:00", "meta": {"OBJECT_NAME": "COSMOS 2251 DEB", "OBJECT_ID": "1993-036F", "EPOCH": "2025-12-09T09:42:00.567072", "MEAN_MOTION": 14.51563302, "ECCENTRICITY": 0.0017491, "INCLINATION": 74.0275, "RA_OF_ASC_NODE": 221.3124, "ARG_OF_PERICENTER": 288.3168, "MEAN_ANOMALY": 245.4416, "EPHEMERIS_TYPE": 0, "CLASSIFICATION_TYPE": "U", "NORAD_CAT_ID": 33758, "ELEMENT_SET_NO": 999, "REV_AT_EPOCH": 88256, "BSTAR": 0.0012638, "MEAN_MOTION_DOT": 5.044e-05, "MEAN_MOTION_DDOT": 0}, "tle": {"line1": "1 33758U 93036F   25343.40417323  .00005044  00000+0  12638-2 0  9992", "line2": "2 33758  74.0275 221.3124 0017491 288.3168 245.4416 14.51563302882561"}}, "geometry": {"type": "Point", "coordinates": [-157.26628423854757, -47.19000617748125]}}, {"type": "Feature", "properties": {"norad_id": 33760, "name": "COSMOS 2251 DEB", "group": "cosmos-2251-debris", "lat": 61.252934043615255, "lon": -41.51161752550302, "alt_km": 755.6481606482821, "timestamp": "2025-12-09T16:56:36.966607+00:00", "meta": {"OBJECT_NAME": "COSMOS 2251 DEB", "OBJECT_ID": "1993-036H", "EPOCH": "2025-12-09T07:08:04.252416", "MEAN_MOTION": 14.35669306, "ECCENTRICITY": 0.0019724, "INCLINATION": 74.032, "RA_OF_ASC_NODE": 287.7739, "ARG_OF_PERICENTER": 27.076, "MEAN_ANOMALY": 87.0617, "EPHEMERIS_TYPE": 0, "CLASSIFICATION_TYPE": "U", "NORAD_CAT_ID": 33760, "ELEMENT_SET_NO": 999, "REV_AT_EPOCH": 88075, "BSTAR": 0.00021572, "MEAN_MOTION_DOT": 5.98e-06, "MEAN_MOTION_DDOT": 0}, "tle": {"line1": "1 33760U 93036H   25343.29727144  .00000598  00000+0  21572-3 0  9994", "line2": "2 33760  74.0320 287.7739 0019724  27.0760  87.0617 14.35669306880755"}}, "geometry": {"type": "Point", "coordinates": [-41.51161752550302, 61.252934043615255]}}, {"type": "Feature", "properties": {"norad_id": 33761, "name": "COSMOS 2251 DEB", "group": "cosmos-2251-debris", "lat": -71.58266646676903, "lon": -161.47582160704476, "alt_km": 748.6491495332084, "timestamp": "2025-12-09T16:56:36.966618+00:00", "meta": {"OBJECT_NAME": "COSMOS 2251 DEB", "OBJECT_ID": "1993-036J", "EPOCH": "2025-12-08T19:59:05.455392", "MEAN_MOTION": 14.42527641, "ECCENTRICITY": 0.00229259, "INCLINATION": 74.0372, "RA_OF_ASC_NODE": 259.4117, "ARG_OF_PERICENTER": 340.1852, "MEAN_ANOMALY": 86.1409, "EPHEMERIS_TYPE": 0, "CLASSIFICATION_TYPE": "U", "NORAD_CAT_ID": 33761, "ELEMENT_SET_NO": 999, "REV_AT_EPOCH": 88178, "BSTAR": 0.00092875648, "MEAN_MOTION_DOT": 3.064e-05, "MEAN_MOTION_DDOT": 0}, "tle": {"line1": "1 33761U 93036J   25342.83270203  .00003064  00000+0  92876-3 0  9999", "line2": "2 33761  74.0372 259.4117 0022925 340.1852  86.1409 14.42527641881783"}}, "geometry": {"type": "Point", "coordinates": [-161.47582160704476, -71.58266646676903]}}, {"type": "Feature", "properties": {"norad_id": 33762, "name": "COSMOS 2251 DEB", "group": "cosmos-2251-debris", "lat": 24.421963307031508, "lon": -36.96066455966743, "alt_km": 767.9607984896829, "timestamp": "2025-12-09T16:56:36.966629+00:00", "meta": {"OBJECT_NAME": "COSMOS 2251 DEB", "OBJECT_ID": "1993-036K", "EPOCH": "2025-12-09T09:00:27.406944", "MEAN_MOTION": 14.33662204, "ECCENTRICITY": 0.0014862, "INCLINATION": 74.0414, "RA_OF_ASC_NODE": 316.1778, "ARG_OF_PERICENTER": 18.5987, "MEAN_ANOMALY": 101.0047, "EPHEMERIS_TYPE": 0, "CLASSIFICATION_TYPE": "U", "NORAD_CAT_ID": 33762, "ELEMENT_SET_NO": 999, "REV_AT_EPOCH": 87999, "BSTAR": 9.8582e-05, "MEAN_MOTION_DOT": 2.48e-06, "MEAN_MOTION_DDOT": 0}, "tle": {"line1": "1 33762U 93036K   25343.37531721  .00000248  00000+0  98582-4 0  9997", "line2": "2 33762  74.0414 316.1778 0014862  18.5987 101.0047 14.33662204879991"}}, "geometry": {"type": "Point", "coordinates": [-36.96066455966743, 24.421963307031508]}}, {"type": "Feature", "properties": {"norad_id": 33764, "name": "COSMOS 2251 DEB", "group": "cosmos-2251-debris", "lat": 70.4437552466547, "lon": 44.555580121089776, "alt_km": 766.7125250628433, "timestamp": "2025-12-09T16:56:36.966640+00:00", "meta": {"OBJECT_NAME": "COSMOS 2251 DEB", "OBJECT_ID": "1993-036M", "EPOCH": "2025-12-09T06:59:45.898080", "MEAN_MOTION": 14.39499517, "ECCENTRICITY": 0.0024093, "INCLINATION": 74.0335, "RA_OF_ASC_NODE": 279.0243, "ARG_OF_PERICENTER": 245.3431, "MEAN_ANOMALY": 229.179, "EPHEMERIS_TYPE": 0, "CLASSIFICATION_TYPE": "U", "NORAD_CAT_ID": 33764, "ELEMENT_SET_NO": 999, "REV_AT_EPOCH": 88107, "BSTAR": 0.00064555, "MEAN_MOTION_DOT": 1.993e-05, "MEAN_MOTION_DDOT": 0}, "tle": {"line1": "1 33764U 93036M   25343.29150345  .00001993  00000+0  64555-3 0  9999", "line2": "2 33764  74.0335 279.0243 0024093 245.3431 229.1790 14.39499517881070"}}, "geometry": {"type": "Point", "coordinates": [44.555580121089776, 70.4437552466547]}}, {"type": "Feature", "properties": {"norad_id": 33765, "name": "COSMOS 2251 DEB", "group": "cosmos-2251-debris", "lat": -58.578357291112454, "lon": 27.374499159506364, "alt_km": 503.97688924243084, "timestamp": "2025-12-09T16:56:36.966651+00:00", "meta": {"OBJECT_NAME": "COSMOS 2251 DEB", "OBJECT_ID": "1993-036N", "EPOCH": "2025-12-09T00:39:09.661824", "MEAN_MOTION": 15.09638383, "ECCENTRICITY": 0.00662746, "INCLINATION": 74.0093, "RA_OF_ASC_NODE": 180.7811, "ARG_OF_PERICENTER": 273.6216, "MEAN_ANOMALY": 241.793, "EPHEMERIS_TYPE": 0, "CLASSIFICATION_TYPE": "U", "NORAD_CAT_ID": 33765, "ELEMENT_SET_NO": 999, "REV_AT_EPOCH": 89562, "BSTAR": 0.0022368597, "MEAN_MOTION_DOT": 0.00038062, "MEAN_MOTION_DDOT": 0}, "tle": {"line1": "1 33765U 93036N   25343.02719516  .00038062  00000+0  22369-2 0  9995", "line2": "2 33765  74.0093 180.7811 0066274 273.6216 241.7930 15.09638383895629"}}, "geometry": {"type": "Point", "coordinates": [27.374499159506364, -58.578357291112454]}}, {"type": "Feature", "properties": {"norad_id": 33766, "name": "COSMOS 2251 DEB", "group": "cosmos-2251-debris", "lat": -12.264216174115807, "lon": -35.97950179200924, "alt_km": 819.7826530097236, "timestamp": "2025-12-09T16:56:36.966662+00:00", "meta": {"OBJECT_NAME": "COSMOS 2251 DEB", "OBJECT_ID": "1993-036P", "EPOCH": "2025-12-09T11:01:35.583168", "MEAN_MOTION": 14.34919507, "ECCENTRICITY": 0.0063979, "INCLINATION": 74.1855, "RA_OF_ASC_NODE": 140.9357, "ARG_OF_PERICENTER": 345.243, "MEAN_ANOMALY": 14.6853, "EPHEMERIS_TYPE": 0, "CLASSIFICATION_TYPE": "U", "NORAD_CAT_ID": 33766, "ELEMENT_SET_NO": 999, "REV_AT_EPOCH": 87698, "BSTAR": 0.00082486, "MEAN_MOTION_DOT": 2.376e-05, "MEAN_MOTION_DDOT": 0}, "tle": {"line1": "1 33766U 93036P   25343.45943962  .00002376  00000+0  82486-3 0  9993", "line2": "2 33766  74.1855 140.9357 0063979 345.2430  14.6853 14.34919507876989"}}, "geometry": {"type": "Point", "coordinates": [-35.97950179200924, -12.264216174115807]}}, {"type": "Feature", "properties": {"norad_id": 33768, "name": "COSMOS 2251 DEB", "group": "cosmos-2251-debris", "lat": -50.17387436239722, "lon": 64.79264849772841, "alt_km": 1281.1773557239494, "timestamp": "2025-12-09T16:56:36.966673+00:00", "meta": {"OBJECT_NAME": "COSMOS 2251 DEB", "OBJECT_ID": "1993-036R", "EPOCH": "2025-12-09T11:19:56.911872", "MEAN_MOTION": 13.58450802, "ECCENTRICITY": 0.0366159, "INCLINATION": 74.0686, "RA_OF_ASC_NODE": 225.1408, "ARG_OF_PERICENTER": 23.5977, "MEAN_ANOMALY": 148.5343, "EPHEMERIS_TYPE": 0, "CLASSIFICATION_TYPE": "U", "NORAD_CAT_ID": 33768, "ELEMENT_SET_NO": 999, "REV_AT_EPOCH": 83251, "BSTAR": 0.00056531, "MEAN_MOTION_DOT": 6.17e-06, "MEAN_MOTION_DDOT": 0}, "tle": {"line1": "1 33768U 93036R   25343.47218648  .00000617  00000+0  56531-3 0  9991", "line2": "2 33768  74.0686 225.1408 0366159  23.5977 148.5343 13.58450802832518"}}, "geometry": {"type": "Point", "coordinates": [64.79264849772841, -50.17387436239722]}}]}